{
  "type": "FeatureCollection",
  "features": [
    {
      "type": "Feature",
      "properties": {
        "norad_id": 31541,
        "name": "FENGYUN 1C DEB",
        "group": "fengyun-1c-debris",
        "lat": -28.537948314821747,
        "lon": 137.42681197829916,
        "alt_km": 679.9316224627601,
        "timestamp": "2025-12-15T19:00:45.639765+00:00",
        "meta_object_name": "FENGYUN 1C DEB",
        "meta_object_id": "1999-025BYG",
        "meta_epoch": "2025-12-14T08:48:45.965088",
        "meta_mean_motion": 14.68864949,
        "meta_eccentricity": 0.00784224,
        "meta_inclination": 98.9791,
        "meta_ra_of_asc_node": 130.93,
        "meta_arg_of_pericenter": 235.2518,
        "meta_mean_anomaly": 124.1284,
        "meta_ephemeris_type": 0,
        "meta_classification_type": "U",
        "meta_norad_cat_id": 31541,
        "meta_element_set_no": 999,
        "meta_rev_at_epoch": 98447,
        "meta_bstar": 0.0015416356,
        "meta_mean_motion_dot": 9.39e-05,
        "meta_mean_motion_ddot": 0,
        "tle_line1": "1 31541U 99025BYG 25348.36719867  .00009390  00000+0  15416-2 0  9997",
        "tle_line2": "2 31541  98.9791 130.9300 0078422 235.2518 124.1284 14.68864949984477"
      },
      "geometry": {
        "type": "Point",
        "coordinates": [
          137.42681197829916,
          -28.537948314821747
        ]
      }
    },
    {
      "type": "Feature",
      "properties": {
        "norad_id": 31542,
        "name": "FENGYUN 1C DEB",
        "group": "fengyun-1c-debris",
        "lat": 57.26444709758003,
        "lon": 29.93953531567299,
        "alt_km": 836.3762681260114,
        "timestamp": "2025-12-15T19:00:45.639775+00:00",
        "meta_object_name": "FENGYUN 1C DEB",
        "meta_object_id": "1999-025BYH",
        "meta_epoch": "2025-12-13T14:24:59.043168",
        "meta_mean_motion": 14.22802296,
        "meta_eccentricity": 0.00475366,
        "meta_inclination": 98.7319,
        "meta_ra_of_asc_node": 41.5991,
        "meta_arg_of_pericenter": 204.5792,
        "meta_mean_anomaly": 155.312,
        "meta_ephemeris_type": 0,
        "meta_classification_type": "U",
        "meta_norad_cat_id": 31542,
        "meta_element_set_no": 999,
        "meta_rev_at_epoch": 95952,
        "meta_bstar": 0.0016748704,
        "meta_mean_motion_dot": 3.759e-05,
        "meta_mean_motion_ddot": 0,
        "tle_line1": "1 31542U 99025BYH 25347.60068337  .00003759  00000+0  16749-2 0  9996",
        "tle_line2": "2 31542  98.7319  41.5991 0047536 204.5792 155.3120 14.22802296959520"
      },
      "geometry": {
        "type": "Point",
        "coordinates": [
          29.93953531567299,
          57.26444709758003
        ]
      }
    },
    {
      "type": "Feature",
      "properties": {
        "norad_id": 31544,
        "name": "FENGYUN 1C DEB",
        "group": "fengyun-1c-debris",
        "lat": 55.374433850217166,
        "lon": 28.011683342077948,
        "alt_km": 860.2130480349269,
        "timestamp": "2025-12-15T19:00:45.639786+00:00",
        "meta_object_name": "FENGYUN 1C DEB",
        "meta_object_id": "1999-025BYK",
        "meta_epoch": "2025-12-12T02:27:27.366048",
        "meta_mean_motion": 14.14331893,
        "meta_eccentricity": 0.00317932,
        "meta_inclination": 98.8295,
        "meta_ra_of_asc_node": 37.374,
        "meta_arg_of_pericenter": 270.7963,
        "meta_mean_anomaly": 88.9567,
        "meta_ephemeris_type": 0,
        "meta_classification_type": "U",
        "meta_norad_cat_id": 31544,
        "meta_element_set_no": 999,
        "meta_rev_at_epoch": 95748,
        "meta_bstar": 0.0010041724,
        "meta_mean_motion_dot": 1.885e-05,
        "meta_mean_motion_ddot": 0,
        "tle_line1": "1 31544U 99025BYK 25346.10240007  .00001885  00000+0  10042-2 0  9996",
        "tle_line2": "2 31544  98.8295  37.3740 0031793 270.7963  88.9567 14.14331893957484"
      },
      "geometry": {
        "type": "Point",
        "coordinates": [
          28.011683342077948,
          55.374433850217166
        ]
      }
    },
    {
      "type": "Feature",
      "properties": {
        "norad_id": 31546,
        "name": "FENGYUN 1C DEB",
        "group": "fengyun-1c-debris",
        "lat": -29.25219383102028,
        "lon": -125.5928290197391,
        "alt_km": 837.0201539790651,
        "timestamp": "2025-12-15T19:00:45.639796+00:00",
        "meta_object_name": "FENGYUN 1C DEB",
        "meta_object_id": "1999-025BYM",
        "meta_epoch": "2025-12-14T11:27:03.098880",
        "meta_mean_motion": 14.13146667,
        "meta_eccentricity": 0.01463006,
        "meta_inclination": 98.244,
        "meta_ra_of_asc_node": 57.8525,
        "meta_arg_of_pericenter": 131.9281,
        "meta_mean_anomaly": 229.4474,
        "meta_ephemeris_type": 0,
        "meta_classification_type": "U",
        "meta_norad_cat_id": 31546,
        "meta_element_set_no": 999,
        "meta_rev_at_epoch": 94813,
        "meta_bstar": 0.002053907,
        "meta_mean_motion_dot": 4.216e-05,
        "meta_mean_motion_ddot": 0,
        "tle_line1": "1 31546U 99025BYM 25348.47711920  .00004216  00000+0  20539-2 0  9990",
        "tle_line2": "2 31546  98.2440  57.8525 0146300 131.9281 229.4474 14.13146667948135"
      },
      "geometry": {
        "type": "Point",
        "coordinates": [
          -125.5928290197391,
          -29.25219383102028
        ]
      }
    },
    {
      "type": "Feature",
      "properties": {
        "norad_id": 31547,
        "name": "FENGYUN 1C DEB",
        "group": "fengyun-1c-debris",
        "lat": 80.69216888051538,
        "lon": -43.897421960847254,
        "alt_km": 842.5615730920208,
        "timestamp": "2025-12-15T19:00:45.639806+00:00",
        "meta_object_name": "FENGYUN 1C DEB",
        "meta_object_id": "1999-025BYN",
        "meta_epoch": "2025-12-09T09:02:48.494688",
        "meta_mean_motion": 14.23103077,
        "meta_eccentricity": 0.00537834,
        "meta_inclination": 99.0872,
        "meta_ra_of_asc_node": 27.0415,
        "meta_arg_of_pericenter": 262.539,
        "meta_mean_anomaly": 96.9674,
        "meta_ephemeris_type": 0,
        "meta_classification_type": "U",
        "meta_norad_cat_id": 31547,
        "meta_element_set_no": 999,
        "meta_rev_at_epoch": 63969,
        "meta_bstar": 0.0021137662,
        "meta_mean_motion_dot": 4.797e-05,
        "meta_mean_motion_ddot": 0,
        "tle_line1": "1 31547U 99025BYN 25343.37695017  .00004797  00000+0  21138-2 0  9993",
        "tle_line2": "2 31547  99.0872  27.0415 0053783 262.5390  96.9674 14.23103077639691"
      },
      "geometry": {
        "type": "Point",
        "coordinates": [
          -43.897421960847254,
          80.69216888051538
        ]
      }
    },
    {
      "type": "Feature",
      "properties": {
        "norad_id": 31550,
        "name": "FENGYUN 1C DEB",
        "group": "fengyun-1c-debris",
        "lat": 81.50299097756113,
        "lon": -112.7495852924895,
        "alt_km": 884.4930004184544,
        "timestamp": "2025-12-15T19:00:45.639837+00:00",
        "meta_object_name": "FENGYUN 1C DEB",
        "meta_object_id": "1999-025BYR",
        "meta_epoch": "2025-12-14T22:34:05.846880",
        "meta_mean_motion": 14.40224133,
        "meta_eccentricity": 0.01900422,
        "meta_inclination": 98.3112,
        "meta_ra_of_asc_node": 348.338,
        "meta_arg_of_pericenter": 266.1524,
        "meta_mean_anomaly": 91.7919,
        "meta_ephemeris_type": 0,
        "meta_classification_type": "U",
        "meta_norad_cat_id": 31550,
        "meta_element_set_no": 999,
        "meta_rev_at_epoch": 65486,
        "meta_bstar": 0.00059290333,
        "meta_mean_motion_dot": 2.27e-05,
        "meta_mean_motion_ddot": 0,
        "tle_line1": "1 31550U 99025BYR 25348.94034545  .00002270  00000+0  59290-3 0  9993",
        "tle_line2": "2 31550  98.3112 348.3380 0190042 266.1524  91.7919 14.40224133654860"
      },
      "geometry": {
        "type": "Point",
        "coordinates": [
          -112.7495852924895,
          81.50299097756113
        ]
      }
    },
    {
      "type": "Feature",
      "properties": {
        "norad_id": 31552,
        "name": "FENGYUN 1C DEB",
        "group": "fengyun-1c-debris",
        "lat": 53.81718209419241,
        "lon": -56.333159123528944,
        "alt_km": 758.5404824702546,
        "timestamp": "2025-12-15T19:00:45.639849+00:00",
        "meta_object_name": "FENGYUN 1C DEB",
        "meta_object_id": "1999-025BYT",
        "meta_epoch": "2025-12-14T19:11:12.097248",
        "meta_mean_motion": 14.45736865,
        "meta_eccentricity": 0.00855015,
        "meta_inclination": 98.6204,
        "meta_ra_of_asc_node": 110.6883,
        "meta_arg_of_pericenter": 14.442,
        "meta_mean_anomaly": 345.9185,
        "meta_ephemeris_type": 0,
        "meta_classification_type": "U",
        "meta_norad_cat_id": 31552,
        "meta_element_set_no": 999,
        "meta_rev_at_epoch": 95906,
        "meta_bstar": 0.0022247972,
        "meta_mean_motion_dot": 8.206e-05,
        "meta_mean_motion_ddot": 0,
        "tle_line1": "1 31552U 99025BYT 25348.79944557  .00008206  00000+0  22248-2 0  9998",
        "tle_line2": "2 31552  98.6204 110.6883 0085501  14.4420 345.9185 14.45736865959061"
      },
      "geometry": {
        "type": "Point",
        "coordinates": [
          -56.333159123528944,
          53.81718209419241
        ]
      }
    }
  ]
}